{
    "links": {
        "self": "http://www.neowsapp.com/rest/v1/neo/54017079?api_key=iIulBulltgU6a56xZRHN4H3l9WmuAYTsLGpBGhQ2"
    },
    "id": "54017079",
    "neo_reference_id": "54017079",
    "name": "(2020 KN)",
    "designation": "2020 KN",
    "nasa_jpl_url": "http://ssd.jpl.nasa.gov/sbdb.cgi?sstr=54017079",
    "absolute_magnitude_h": 23.486,
    "estimated_diameter": {
        "kilometers": {
            "estimated_diameter_min": 0.0533771002,
            "estimated_diameter_max": 0.1193548246
        },
        "meters": {
            "estimated_diameter_min": 53.3771002352,
            "estimated_diameter_max": 119.3548245678
        },
        "miles": {
            "estimated_diameter_min": 0.0331669822,
            "estimated_diameter_max": 0.0741636267
        },
        "feet": {
            "estimated_diameter_min": 175.1217255357,
            "estimated_diameter_max": 391.5840826349
        }
    },
    "is_potentially_hazardous_asteroid": false,
    "close_approach_data": [
        {
            "close_approach_date": "2020-04-23",
            "close_approach_date_full": "2020-Apr-23 22:07",
            "epoch_date_close_approach": 1587679620000,
            "relative_velocity": {
                "kilometers_per_second": "6.0306333622",
                "kilometers_per_hour": "21710.2801039103",
                "miles_per_hour": "13489.9237678992"
            },
            "miss_distance": {
                "astronomical": "0.1971994609",
                "lunar": "76.7105902901",
                "kilometers": "29500619.315788283",
                "miles": "18330834.8307249854"
            },
            "orbiting_body": "Earth"
        }
    ],
    "orbital_data": {
        "orbit_id": "3",
        "orbit_determination_date": "2020-05-26 08:17:34",
        "first_observation_date": "2020-05-16",
        "last_observation_date": "2020-05-26",
        "data_arc_in_days": 10,
        "observations_used": 18,
        "orbit_uncertainty": "8",
        "minimum_orbit_intersection": ".183442",
        "jupiter_tisserand_invariant": "4.027",
        "epoch_osculation": "2458986.5",
        "eccentricity": ".3590388602266333",
        "semi_major_axis": "1.761221094121877",
        "inclination": "8.993960307120659",
        "ascending_node_longitude": "256.4931843512763",
        "orbital_period": "853.7274477169922",
        "perihelion_distance": "1.128874279881254",
        "perihelion_argument": "296.1538050168112",
        "aphelion_distance": "2.393567908362499",
        "perihelion_time": "2458945.521517920622",
        "mean_anomaly": "17.27981639576663",
        "mean_motion": ".4216802458005764",
        "equinox": "J2000",
        "orbit_class": {
            "orbit_class_type": "AMO",
            "orbit_class_description": "Near-Earth asteroid orbits similar to that of 1221 Amor",
            "orbit_class_range": "1.017 AU < q (perihelion) < 1.3 AU"
        }
    },
    "is_sentry_object": false
}